SWAS                    
1 25560U 98071A   26068.53487068  .00004636  00000+0  29986-3 0  9991
2 25560  69.8952 124.3662 0004099  14.3215 345.8065 15.08888192482231
STARLINK-3720           
1 52136U 22029BA  26068.26666077 -.00002854  00000+0 -16137-3 0  9995
2 52136  53.2169  71.0195 0001456  74.6079 285.5074 15.08818219220870
